From: horizons@ssd.jpl.nasa.gov (Horizons Ephemeris System)
Subject: [Horizons] SMALL BODY #C(500@10)_T(Helfenzrieder (D/1766 G1)) (1/1)
Date: February 4, 2021 at 4:59:36 PM PST

Automated mail xmit by PORT_LOGIN, PID= 2769 Thu Feb  4 16:59:36 2021
++++++++++++++++++++++++++++++++ (part 1 of 1)  +++++++++++++++++++++++++++++++
*******************************************************************************
Ephemeris / PORT_LOGIN Thu Feb  4 16:59:19 2021 Pasadena, USA    / Horizons
*******************************************************************************
Target body name: Helfenzrieder (D/1766 G1)       {source: DASTCOM}
Center body name: Sun (10)                        {source: DE431}
Center-site name: BODY CENTER
*******************************************************************************
Start time      : A.D. 2030-Jan-01 00:00:00.0000 TDB
Stop  time      : A.D. 2035-Jul-01 00:00:00.0000 TDB
Step-size       : 20160 minutes
*******************************************************************************
Center geodetic : 0.00000000,0.00000000,0.0000000 {E-lon(deg),Lat(deg),Alt(km)}
Center cylindric: 0.00000000,0.00000000,0.0000000 {E-lon(deg),Dxy(km),Dz(km)}
Center radii    : 696000.0 x 696000.0 x 696000.0 k{Equator, meridian, pole}    
Small perturbers: Yes                             {source: SB431-N16}
Output units    : AU-D
Output type     : GEOMETRIC cartesian states
Output format   : 3 (position, velocity, LT, range, range-rate)
Reference frame : Ecliptic of J2000.0
*******************************************************************************
Initial IAU76/J2000 heliocentric ecliptic osculating elements (au, days, deg.):
 EPOCH=  2366200.5 ! 1766-May-03.0000000 (TDB)    RMSW= n.a.                  
  EC= .84763              QR= .40603              TP= 2366195.409             
  OM= 76.26300000000001   W= 178.699              IN= 7.865                   
 Equivalent ICRF heliocentric equatorial cartesian coordinates (au, au/d):
  X= 7.603016869742597E-02  Y=-3.736134275849483E-01  Z=-1.880310277992350E-01
 VX= 3.546557756299433E-02 VY= 1.293151731860929E-03 VZ=-4.650129810394709E-03
Comet physical (GM= km^3/s^2; RAD= km):                                        
  GM= n.a.                RAD= n.a.                                           
  M1=  n.a.     M2=  n.a.     k1= n.a.    k2= n.a.     PHCOF= n.a.            
*******************************************************************************
           JDTDB,            Calendar Date (TDB),                      X,                      Y,                      Z,                     VX,                     VY,                     VZ,                     LT,                     RG,                     RR,
**************************************************************************************************************************************************************************************************************************************************************************
$$SOE
2463958.500000000, A.D. 2033-Dec-27 00:00:00.0000,  8.621533632378219E-01,  4.783077916960501E+00, -4.680839152623436E-02, -3.024498774271974E-03,  3.595132296746689E-03,  4.043119800639735E-05,  2.807123759062492E-02,  4.860384121340078E+00,  3.001063953646014E-03,
2463972.500000000, A.D. 2034-Jan-10 00:00:00.0000,  8.195970107474916E-01,  4.832207893448317E+00, -4.623065497579761E-02, -3.054602768244528E-03,  3.423863609586145E-03,  4.209229929926403E-05,  2.830835396950264E-02,  4.901439549661909E+00,  2.864328196980568E-03,
2463986.500000000, A.D. 2034-Jan-24 00:00:00.0000,  7.766347760053548E-01,  4.878957667406752E+00, -4.563008811612102E-02, -3.082501083361424E-03,  3.255074239565492E-03,  4.369314557979104E-05,  2.853449269265030E-02,  4.940594255814730E+00,  2.729509338424089E-03,
2464000.500000000, A.D. 2034-Feb-07 00:00:00.0000,  7.332967901498112E-01,  4.923360753334017E+00, -4.500751767323760E-02, -3.108296852204856E-03,  3.088596441361877E-03,  4.523603033542452E-05,  2.874980335462814E-02,  4.977874141293733E+00,  2.596476742768682E-03,
2464014.500000000, A.D. 2034-Feb-21 00:00:00.0000,  6.896118296792765E-01,  4.965448483669609E+00, -4.436373372338101E-02, -3.132085899753312E-03,  2.924285745515353E-03,  4.672435218948091E-05,  2.895442584905735E-02,  5.013303427928564E+00,  2.465119864334986E-03,
2464028.500000000, A.D. 2034-Mar-07 00:00:00.0000,  6.456072965208300E-01,  5.005250190952539E+00, -4.369947482888707E-02, -3.153964730708081E-03,  2.761997561732830E-03,  4.816142555101865E-05,  2.914849109740364E-02,  5.046904784068318E+00,  2.335324729795034E-03,
2464042.500000000, A.D. 2034-Mar-21 00:00:00.0000,  6.013093505363443E-01,  5.042793202004185E+00, -4.301544262170363E-02, -3.174014753451625E-03,  2.601592552927874E-03,  4.954946764469103E-05,  2.933212088523191E-02,  5.078699296229892E+00,  2.206981836143907E-03,
2464056.500000000, A.D. 2034-Apr-04 00:00:00.0000,  5.567430752855006E-01,  5.078102965292295E+00, -4.231230858910598E-02, -3.192309202072786E-03,  2.442941232064591E-03,  5.089060976705843E-05,  2.950542849645495E-02,  5.108706578914755E+00,  2.079989838686401E-03,
2464070.500000000, A.D. 2034-Apr-18 00:00:00.0000,  5.119325689037496E-01,  5.111203165218254E+00, -4.159071498394429E-02, -3.208915682267118E-03,  2.285920385792375E-03,  5.218684929127176E-05,  2.966851923132117E-02,  5.136944864295740E+00,  1.954251960942918E-03,
2464084.500000000, A.D. 2034-May-02 00:00:00.0000,  4.669010404399918E-01,  5.142115782971622E+00, -4.085128036040894E-02, -3.223891960724836E-03,  2.130410291274137E-03,  5.343946023907387E-05,  2.982149064102941E-02,  5.163431042839334E+00,  1.829673859006311E-03,
2464098.500000000, A.D. 2034-May-16 00:00:00.0000,  4.216709757047246E-01,  5.170861224652865E+00, -4.009460555098590E-02, -3.237287412060730E-03,  1.976308123792072E-03,  5.465025942359634E-05,  2.996443319491029E-02,  5.188180778824557E+00,  1.706176808475296E-03,
2464112.500000000, A.D. 2034-May-30 00:00:00.0000,  3.762640895962864E-01,  5.197458509502133E+00, -3.932125454871079E-02, -3.249161546834464E-03,  1.823512842876092E-03,  5.582211772615846E-05,  3.009743119249395E-02,  5.211208668262589E+00,  1.583681456776664E-03,
2464126.500000000, A.D. 2034-Jun-13 00:00:00.0000,  3.307013173697734E-01,  5.221925188917002E+00, -3.853176027118217E-02, -3.259564438552690E-03,  1.671918748832949E-03,  5.695668834170123E-05,  3.022056219266862E-02,  5.232528140058643E+00,  1.462103504889238E-03,
2464140.500000000, A.D. 2034-Jun-27 00:00:00.0000,  2.850029485693196E-01,  5.244277368948371E+00, -3.772663429044561E-02, -3.268539369858049E-03,  1.521424979445776E-03,  5.805546885419894E-05,  3.033389711550996E-02,  5.252151473643171E+00,  1.341362873528653E-03,
2464154.500000000, A.D. 2034-Jul-11 00:00:00.0000,  2.391886941007391E-01,  5.264529763568455E+00, -3.690636739373506E-02, -3.276125768455168E-03,  1.371932996490672E-03,  5.911989563877043E-05,  3.043750049083822E-02,  5.270089842008195E+00,  1.221381065932404E-03,
2464168.500000000, A.D. 2034-Jul-25 00:00:00.0000,  1.932777506073913E-01,  5.282695702955628E+00, -3.607143325447202E-02, -3.282356413068200E-03,  1.223343309501526E-03,  6.015083470568720E-05,  3.053143045330396E-02,  5.286353310856430E+00,  1.102078107672021E-03,
2464182.500000000, A.D. 2034-Aug-08 00:00:00.0000,  1.472889509198438E-01,  5.298787161522267E+00, -3.522229828059709E-02, -3.287251566721189E-03,  1.075565383545971E-03,  6.114885371343850E-05,  3.061573887051877E-02,  5.300950860786434E+00,  9.833825184904299E-04,
2464196.500000000, A.D. 2034-Aug-22 00:00:00.0000,  1.012408013607062E-01,  5.312814940198923E+00, -3.435940855533313E-02, -3.290840192332117E-03,  9.285169191944782E-04,  6.211609860154587E-05,  3.069047232637904E-02,  5.313890557549836E+00,  8.652298989033784E-04,
2464210.500000000, A.D. 2034-Sep-05 00:00:00.0000,  5.515140948516914E-02,  5.324788611167174E+00, -3.348318632461443E-02, -3.293146293810770E-03,  7.821063562519032E-04,  6.305359618206940E-05,  3.075567173808585E-02,  5.325179485740390E+00,  7.475462816037249E-04,
2464224.500000000, A.D. 2034-Sep-19 00:00:00.0000,  9.038619163687818E-03,  5.334716484505842E+00, -3.259404393392159E-02, -3.294184994815785E-03,  6.362458303660921E-04,  6.396193645780822E-05,  3.081137214379084E-02,  5.334823712025986E+00,  6.302610243863747E-04,
2464238.500000000, A.D. 2034-Oct-03 00:00:00.0000, -3.707991004669155E-02,  5.342605666685423E+00, -3.169238538588103E-02, -3.293967820504213E-03,  4.908508033828686E-04,  6.484171040521204E-05,  3.085760300102112E-02,  5.342828336819339E+00,  5.133062776426035E-04,
2464252.500000000, A.D. 2034-Oct-17 00:00:00.0000, -8.318665683664697E-02,  5.348462085699011E+00, -3.077860778526192E-02, -3.292502436526940E-03,  3.458368409458044E-04,  6.569320856624054E-05,  3.089438829029948E-02,  5.349197512219256E+00,  3.966138007824171E-04,
2464266.500000000, A.D. 2034-Oct-31 00:00:00.0000, -1.292641361830387E-01,  5.352290496075535E+00, -2.985310972582846E-02, -3.289785405508652E-03,  2.011235203376644E-04,  6.651606610715070E-05,  3.092174649901507E-02,  5.353934439217943E+00,  2.801186829456622E-04,
2464280.500000000, A.D. 2034-Nov-14 00:00:00.0000, -1.752948143203238E-01,  5.354094642011582E+00, -2.891628529859569E-02, -3.285818297554667E-03,  5.664457117137208E-05,  6.731156587986900E-05,  3.093969150754970E-02,  5.357041521129007E+00,  1.637696664221636E-04,
2464294.500000000, A.D. 2034-Nov-28 00:00:00.0000, -2.212612449305402E-01,  5.353877282398667E+00, -2.796850906396105E-02, -3.280607279197612E-03, -8.767601154498671E-05,  6.808065783128794E-05,  3.094823272077747E-02,  5.358520386355922E+00,  4.750574999284610E-05,
2464308.500000000, A.D. 2034-Dec-12 00:00:00.0000, -2.671460047178867E-01,  5.351640097134425E+00, -2.701014887984766E-02, -3.274150493627842E-03, -2.319143606492465E-04,  6.882361275448825E-05,  3.094737451347152E-02,  5.358371792367174E+00, -6.873448103873888E-05,
